CCSDS_OMM_VERS = 2.0
CREATION_DATE  = 
ORIGINATOR     = 

OBJECT_NAME    = HTV-X1
OBJECT_ID      = 2025-241A
CENTER_NAME    = EARTH
REF_FRAME      = TEME
TIME_SYSTEM    = UTC
MEAN_ELEMENT_THEORY = SGP/SGP4

EPOCH          = 2026-03-14T08:15:41.718240
MEAN_MOTION    = 15.22910005
ECCENTRICITY   = .00057324
INCLINATION    = 51.6357
RA_OF_ASC_NODE = 50.7100
ARG_OF_PERICENTER = 187.3443
MEAN_ANOMALY   = 172.7451

EPHEMERIS_TYPE = 0
CLASSIFICATION_TYPE = U
NORAD_CAT_ID   = 66174
ELEMENT_SET_NO = 999
REV_AT_EPOCH   = 2166
BSTAR          = .5679389E-3
MEAN_MOTION_DOT = .13198E-3
MEAN_MOTION_DDOT = 0

CCSDS_OMM_VERS = 2.0
CREATION_DATE  = 
ORIGINATOR     = 

OBJECT_NAME    = SZ-21 MODULE
OBJECT_ID      = 2025-246C
CENTER_NAME    = EARTH
REF_FRAME      = TEME
TIME_SYSTEM    = UTC
MEAN_ELEMENT_THEORY = SGP/SGP4

EPOCH          = 2026-03-20T04:39:31.036608
MEAN_MOTION    = 15.69318212
ECCENTRICITY   = .00003768
INCLINATION    = 41.4734
RA_OF_ASC_NODE = 138.6579
ARG_OF_PERICENTER = 257.1443
MEAN_ANOMALY   = 102.9357

EPHEMERIS_TYPE = 0
CLASSIFICATION_TYPE = U
NORAD_CAT_ID   = 66515
ELEMENT_SET_NO = 999
REV_AT_EPOCH   = 1972
BSTAR          = .21817617E-3
MEAN_MOTION_DOT = .26007E-3
MEAN_MOTION_DDOT = 0

CCSDS_OMM_VERS = 2.0
CREATION_DATE  = 
ORIGINATOR     = 

OBJECT_NAME    = SHENZHOU-22
OBJECT_ID      = 2025-272A
CENTER_NAME    = EARTH
REF_FRAME      = TEME
TIME_SYSTEM    = UTC
MEAN_ELEMENT_THEORY = SGP/SGP4

EPOCH          = 2026-03-20T14:12:38.552832
MEAN_MOTION    = 15.61215573
ECCENTRICITY   = .00056376
INCLINATION    = 41.4664
RA_OF_ASC_NODE = 141.7960
ARG_OF_PERICENTER = 341.7172
MEAN_ANOMALY   = 18.3464

EPHEMERIS_TYPE = 0
CLASSIFICATION_TYPE = U
NORAD_CAT_ID   = 66645
ELEMENT_SET_NO = 999
REV_AT_EPOCH   = 27910
BSTAR          = .20859272E-3
MEAN_MOTION_DOT = .1789E-3
MEAN_MOTION_DDOT = 0

CCSDS_OMM_VERS = 2.0
CREATION_DATE  = 
ORIGINATOR     = 

OBJECT_NAME    = SOYUZ-MS 28
OBJECT_ID      = 2025-275A
CENTER_NAME    = EARTH
REF_FRAME      = TEME
TIME_SYSTEM    = UTC
MEAN_ELEMENT_THEORY = SGP/SGP4

EPOCH          = 2026-03-20T20:55:56.727840
MEAN_MOTION    = 15.48402839
ECCENTRICITY   = .00063663
INCLINATION    = 51.6346
RA_OF_ASC_NODE = 17.0785
ARG_OF_PERICENTER = 213.2716
MEAN_ANOMALY   = 146.7873

EPHEMERIS_TYPE = 0
CLASSIFICATION_TYPE = U
NORAD_CAT_ID   = 66664
ELEMENT_SET_NO = 999
REV_AT_EPOCH   = 55771
BSTAR          = .18572808E-3
MEAN_MOTION_DOT = .959E-4
MEAN_MOTION_DDOT = 0

CCSDS_OMM_VERS = 2.0
CREATION_DATE  = 
ORIGINATOR     = 

OBJECT_NAME    = DUPLEX
OBJECT_ID      = 1998-067XS
CENTER_NAME    = EARTH
REF_FRAME      = TEME
TIME_SYSTEM    = UTC
MEAN_ELEMENT_THEORY = SGP/SGP4

EPOCH          = 2026-03-20T05:50:42.444384
MEAN_MOTION    = 15.56853092
ECCENTRICITY   = .0002978
INCLINATION    = 51.6306
RA_OF_ASC_NODE = 16.6351
ARG_OF_PERICENTER = 156.4039
MEAN_ANOMALY   = 203.7090

EPHEMERIS_TYPE = 0
CLASSIFICATION_TYPE = U
NORAD_CAT_ID   = 66906
ELEMENT_SET_NO = 999
REV_AT_EPOCH   = 1677
BSTAR          = .30375E-3
MEAN_MOTION_DOT = .218E-3
MEAN_MOTION_DDOT = 0

CCSDS_OMM_VERS = 2.0
CREATION_DATE  = 
ORIGINATOR     = 

OBJECT_NAME    = ISS OBJECT XT
OBJECT_ID      = 1998-067XT
CENTER_NAME    = EARTH
REF_FRAME      = TEME
TIME_SYSTEM    = UTC
MEAN_ELEMENT_THEORY = SGP/SGP4

EPOCH          = 2026-03-20T12:33:34.017696
MEAN_MOTION    = 15.72768036
ECCENTRICITY   = .00052238
INCLINATION    = 51.6258
RA_OF_ASC_NODE = 10.2274
ARG_OF_PERICENTER = 150.1907
MEAN_ANOMALY   = 209.9390

EPHEMERIS_TYPE = 0
CLASSIFICATION_TYPE = U
NORAD_CAT_ID   = 66907
ELEMENT_SET_NO = 999
REV_AT_EPOCH   = 1688
BSTAR          = .12285382E-2
MEAN_MOTION_DOT = .172561E-2
MEAN_MOTION_DDOT = 0

CCSDS_OMM_VERS = 2.0
CREATION_DATE  = 
ORIGINATOR     = 

OBJECT_NAME    = ISS OBJECT XU
OBJECT_ID      = 1998-067XU
CENTER_NAME    = EARTH
REF_FRAME      = TEME
TIME_SYSTEM    = UTC
MEAN_ELEMENT_THEORY = SGP/SGP4

EPOCH          = 2026-03-20T23:10:00.359616
MEAN_MOTION    = 15.73054594
ECCENTRICITY   = .00054616
INCLINATION    = 51.6252
RA_OF_ASC_NODE = 7.9239
ARG_OF_PERICENTER = 152.7279
MEAN_ANOMALY   = 207.4007

EPHEMERIS_TYPE = 0
CLASSIFICATION_TYPE = U
NORAD_CAT_ID   = 66908
ELEMENT_SET_NO = 999
REV_AT_EPOCH   = 1695
BSTAR          = .12765529E-2
MEAN_MOTION_DOT = .181752E-2
MEAN_MOTION_DDOT = 0

CCSDS_OMM_VERS = 2.0
CREATION_DATE  = 
ORIGINATOR     = 

OBJECT_NAME    = SILVERSAT
OBJECT_ID      = 1998-067XV
CENTER_NAME    = EARTH
REF_FRAME      = TEME
TIME_SYSTEM    = UTC
MEAN_ELEMENT_THEORY = SGP/SGP4

EPOCH          = 2026-03-20T04:21:22.683456
MEAN_MOTION    = 15.76718316
ECCENTRICITY   = .00058723
INCLINATION    = 51.6236
RA_OF_ASC_NODE = 10.9348
ARG_OF_PERICENTER = 151.9613
MEAN_ANOMALY   = 208.1704

EPHEMERIS_TYPE = 0
CLASSIFICATION_TYPE = U
NORAD_CAT_ID   = 66909
ELEMENT_SET_NO = 999
REV_AT_EPOCH   = 1684
BSTAR          = .10695302E-2
MEAN_MOTION_DOT = .178475E-2
MEAN_MOTION_DDOT = 0

CCSDS_OMM_VERS = 2.0
CREATION_DATE  = 
ORIGINATOR     = 

OBJECT_NAME    = ISS OBJECT XW
OBJECT_ID      = 1998-067XW
CENTER_NAME    = EARTH
REF_FRAME      = TEME
TIME_SYSTEM    = UTC
MEAN_ELEMENT_THEORY = SGP/SGP4

EPOCH          = 2026-03-20T23:15:22.296384
MEAN_MOTION    = 15.71878803
ECCENTRICITY   = .00058123
INCLINATION    = 51.6253
RA_OF_ASC_NODE = 7.9450
ARG_OF_PERICENTER = 154.0747
MEAN_ANOMALY   = 206.0543

EPHEMERIS_TYPE = 0
CLASSIFICATION_TYPE = U
NORAD_CAT_ID   = 66910
ELEMENT_SET_NO = 999
REV_AT_EPOCH   = 1695
BSTAR          = .11761585E-2
MEAN_MOTION_DOT = .158808E-2
MEAN_MOTION_DDOT = 0

CCSDS_OMM_VERS = 2.0
CREATION_DATE  = 
ORIGINATOR     = 

OBJECT_NAME    = ISS OBJECT XX
OBJECT_ID      = 1998-067XX
CENTER_NAME    = EARTH
REF_FRAME      = TEME
TIME_SYSTEM    = UTC
MEAN_ELEMENT_THEORY = SGP/SGP4

EPOCH          = 2026-03-20T18:50:21.995520
MEAN_MOTION    = 15.81589950
ECCENTRICITY   = .00076145
INCLINATION    = 51.6214
RA_OF_ASC_NODE = 6.6859
ARG_OF_PERICENTER = 159.8268
MEAN_ANOMALY   = 200.3037

EPHEMERIS_TYPE = 0
CLASSIFICATION_TYPE = U
NORAD_CAT_ID   = 66911
ELEMENT_SET_NO = 999
REV_AT_EPOCH   = 1694
BSTAR          = .15488969E-2
MEAN_MOTION_DOT = .328635E-2
MEAN_MOTION_DDOT = 0

CCSDS_OMM_VERS = 2.0
CREATION_DATE  = 
ORIGINATOR     = 

OBJECT_NAME    = ISS OBJECT XY
OBJECT_ID      = 1998-067XY
CENTER_NAME    = EARTH
REF_FRAME      = TEME
TIME_SYSTEM    = UTC
MEAN_ELEMENT_THEORY = SGP/SGP4

EPOCH          = 2026-03-20T04:24:03.870432
MEAN_MOTION    = 15.65652756
ECCENTRICITY   = .00038345
INCLINATION    = 51.6283
RA_OF_ASC_NODE = 13.9735
ARG_OF_PERICENTER = 151.9435
MEAN_ANOMALY   = 208.1768

EPHEMERIS_TYPE = 0
CLASSIFICATION_TYPE = U
NORAD_CAT_ID   = 66912
ELEMENT_SET_NO = 999
REV_AT_EPOCH   = 1679
BSTAR          = .68564431E-3
MEAN_MOTION_DOT = .7058E-3
MEAN_MOTION_DDOT = 0

CCSDS_OMM_VERS = 2.0
CREATION_DATE  = 
ORIGINATOR     = 

OBJECT_NAME    = KNACKSAT-2
OBJECT_ID      = 1998-067XZ
CENTER_NAME    = EARTH
REF_FRAME      = TEME
TIME_SYSTEM    = UTC
MEAN_ELEMENT_THEORY = SGP/SGP4

EPOCH          = 2026-03-20T22:18:17.102304
MEAN_MOTION    = 15.52692133
ECCENTRICITY   = .00097311
INCLINATION    = 51.6324
RA_OF_ASC_NODE = 15.9635
ARG_OF_PERICENTER = 225.7971
MEAN_ANOMALY   = 134.2220

EPHEMERIS_TYPE = 0
CLASSIFICATION_TYPE = U
NORAD_CAT_ID   = 67683
ELEMENT_SET_NO = 999
REV_AT_EPOCH   = 653
BSTAR          = .58559191E-3
MEAN_MOTION_DOT = .36557E-3
MEAN_MOTION_DDOT = 0

